FLOCK 4Q-7              
1 58318U 23174BQ  25068.77664624  .00025633  00000+0  85849-3 0  9990
2 58318  97.4280 148.2051 0009278   8.8671 351.2732 15.30884160 74194
FLOCK 4Q-15             
1 58319U 23174BR  25068.72198655  .00029111  00000+0  90625-3 0  9995
2 58319  97.4259 148.6851 0009254   7.1116 353.0256 15.33205680 74225
FLOCK 4Q-2              
1 58320U 23174BS  25068.86986462  .00017183  00000+0  59751-3 0  9994
2 58320  97.4221 147.7305 0008563  11.0820 349.0608 15.29753928 74198
FLOCK 4Q-9              
1 58322U 23174BU  25068.78814496  .00018881  00000+0  66301-3 0  9999
2 58322  97.4247 147.7905 0009023  12.6230 347.5234 15.29410569 74186
FLOCK 4Q-10             
1 58324U 23174BW  25068.74649005  .00250982  00000+0  42651-2 0  9990
2 58324  97.4170 149.2008 0004567 319.2646  40.8263 15.50528116 74276
FLOCK 4Q-4              
1 58327U 23174BZ  25068.76419997  .00021730  00000+0  76266-3 0  9997
2 58327  97.4216 147.3645 0008314  35.1121 325.0666 15.29404171 74165
FLOCK 4Q-13             
1 58328U 23174CA  25068.92414050  .00021219  00000+0  71333-3 0  9993
2 58328  97.4315 148.2442 0009250  29.5188 330.6574 15.30801247 74203
FLOCK 4Q-21             
1 58329U 23174CB  25068.75457288  .00032641  00000+0  10146-2 0  9990
2 58329  97.4278 148.5504 0008897  27.9828 332.1891 15.33233381 74214
FLOCK 4BE-18            
1 60480U 24149N   25068.79405411  .00019663  00000+0  78330-3 0  9998
2 60480  97.4138 147.6467 0005930 110.3248 249.8628 15.25249632 31162
FLOCK 4BE-7             
1 60481U 24149P   25068.75263780  .00018916  00000+0  76749-3 0  9998
2 60481  97.4172 147.6337 0005181 112.7880 247.3905 15.24646479 31152
FLOCK 4BE-16            
1 60483U 24149R   25068.78544931  .00021177  00000+0  84667-3 0  9994
2 60483  97.4158 147.7040 0004580 108.0204 252.1534 15.25118816 31163
FLOCK 4BE-26            
1 60484U 24149S   25068.79502146  .00018053  00000+0  72560-3 0  9996
2 60484  97.4133 147.6109 0005221 111.2670 248.9126 15.24971915 31164
FLOCK 4BE-36            
1 60486U 24149U   25068.75248550  .00022827  00000+0  89384-3 0  9996
2 60486  97.4140 147.6873 0005922 116.8918 243.2926 15.25793472 31163
FLOCK 4BE-25            
1 60487U 24149V   25068.80099068  .00018267  00000+0  73872-3 0  9999
2 60487  97.4195 147.7684 0004348 112.5379 247.6319 15.24767300 31164
FLOCK 4BE-31            
1 60488U 24149W   25068.73930193  .00022225  00000+0  87164-3 0  9993
2 60488  97.4190 147.8453 0004761 115.5413 244.6318 15.25752549 31162
FLOCK 4BE-20            
1 60489U 24149X   25068.74758208  .00017431  00000+0  71242-3 0  9993
2 60489  97.4118 147.4839 0005947 116.5299 243.6549 15.24414221 31152
FLOCK 4BE-23            
1 60490U 24149Y   25068.77328891  .00017692  00000+0  72856-3 0  9990
2 60490  97.4186 147.6323 0005756 117.9884 242.1937 15.24157215 31154
