[{"OBJECT_NAME":"FLOCK 4Q-7","OBJECT_ID":"2023-174BQ","EPOCH":"2025-03-09T18:38:22.235136","MEAN_MOTION":15.3088416,"ECCENTRICITY":0.0009278,"INCLINATION":97.428,"RA_OF_ASC_NODE":148.2051,"ARG_OF_PERICENTER":8.8671,"MEAN_ANOMALY":351.2732,"EPHEMERIS_TYPE":0,"CLASSIFICATION_TYPE":"U","NORAD_CAT_ID":58318,"ELEMENT_SET_NO":999,"REV_AT_EPOCH":7419,"BSTAR":0.00085849,"MEAN_MOTION_DOT":0.00025633,"MEAN_MOTION_DDOT":0},{"OBJECT_NAME":"FLOCK 4Q-15","OBJECT_ID":"2023-174BR","EPOCH":"2025-03-09T17:19:39.637920","MEAN_MOTION":15.3320568,"ECCENTRICITY":0.0009254,"INCLINATION":97.4259,"RA_OF_ASC_NODE":148.6851,"ARG_OF_PERICENTER":7.1116,"MEAN_ANOMALY":353.0256,"EPHEMERIS_TYPE":0,"CLASSIFICATION_TYPE":"U","NORAD_CAT_ID":58319,"ELEMENT_SET_NO":999,"REV_AT_EPOCH":7422,"BSTAR":0.00090625,"MEAN_MOTION_DOT":0.00029111,"MEAN_MOTION_DDOT":0},{"OBJECT_NAME":"FLOCK 4Q-2","OBJECT_ID":"2023-174BS","EPOCH":"2025-03-09T20:52:36.303168","MEAN_MOTION":15.29753928,"ECCENTRICITY":0.0008563,"INCLINATION":97.4221,"RA_OF_ASC_NODE":147.7305,"ARG_OF_PERICENTER":11.082,"MEAN_ANOMALY":349.0608,"EPHEMERIS_TYPE":0,"CLASSIFICATION_TYPE":"U","NORAD_CAT_ID":58320,"ELEMENT_SET_NO":999,"REV_AT_EPOCH":7419,"BSTAR":0.00059751,"MEAN_MOTION_DOT":0.00017183,"MEAN_MOTION_DDOT":0},{"OBJECT_NAME":"FLOCK 4Q-9","OBJECT_ID":"2023-174BU","EPOCH":"2025-03-09T18:54:55.724544","MEAN_MOTION":15.29410569,"ECCENTRICITY":0.0009023,"INCLINATION":97.4247,"RA_OF_ASC_NODE":147.7905,"ARG_OF_PERICENTER":12.623,"MEAN_ANOMALY":347.5234,"EPHEMERIS_TYPE":0,"CLASSIFICATION_TYPE":"U","NORAD_CAT_ID":58322,"ELEMENT_SET_NO":999,"REV_AT_EPOCH":7418,"BSTAR":0.00066301,"MEAN_MOTION_DOT":0.00018881,"MEAN_MOTION_DDOT":0},{"OBJECT_NAME":"FLOCK 4Q-10","OBJECT_ID":"2023-174BW","EPOCH":"2025-03-09T17:54:56.740320","MEAN_MOTION":15.50528116,"ECCENTRICITY":0.0004567,"INCLINATION":97.417,"RA_OF_ASC_NODE":149.2008,"ARG_OF_PERICENTER":319.2646,"MEAN_ANOMALY":40.8263,"EPHEMERIS_TYPE":0,"CLASSIFICATION_TYPE":"U","NORAD_CAT_ID":58324,"ELEMENT_SET_NO":999,"REV_AT_EPOCH":7427,"BSTAR":0.0042651,"MEAN_MOTION_DOT":0.00250982,"MEAN_MOTION_DDOT":0},{"OBJECT_NAME":"FLOCK 4Q-4","OBJECT_ID":"2023-174BZ","EPOCH":"2025-03-09T18:20:26.877408","MEAN_MOTION":15.29404171,"ECCENTRICITY":0.0008314,"INCLINATION":97.4216,"RA_OF_ASC_NODE":147.3645,"ARG_OF_PERICENTER":35.1121,"MEAN_ANOMALY":325.0666,"EPHEMERIS_TYPE":0,"CLASSIFICATION_TYPE":"U","NORAD_CAT_ID":58327,"ELEMENT_SET_NO":999,"REV_AT_EPOCH":7416,"BSTAR":0.00076266,"MEAN_MOTION_DOT":0.0002173,"MEAN_MOTION_DDOT":0},{"OBJECT_NAME":"FLOCK 4Q-13","OBJECT_ID":"2023-174CA","EPOCH":"2025-03-09T22:10:45.739200","MEAN_MOTION":15.30801247,"ECCENTRICITY":0.000925,"INCLINATION":97.4315,"RA_OF_ASC_NODE":148.2442,"ARG_OF_PERICENTER":29.5188,"MEAN_ANOMALY":330.6574,"EPHEMERIS_TYPE":0,"CLASSIFICATION_TYPE":"U","NORAD_CAT_ID":58328,"ELEMENT_SET_NO":999,"REV_AT_EPOCH":7420,"BSTAR":0.00071333,"MEAN_MOTION_DOT":0.00021219,"MEAN_MOTION_DDOT":0},{"OBJECT_NAME":"FLOCK 4Q-21","OBJECT_ID":"2023-174CB","EPOCH":"2025-03-09T18:06:35.096832","MEAN_MOTION":15.33233381,"ECCENTRICITY":0.0008897,"INCLINATION":97.4278,"RA_OF_ASC_NODE":148.5504,"ARG_OF_PERICENTER":27.9828,"MEAN_ANOMALY":332.1891,"EPHEMERIS_TYPE":0,"CLASSIFICATION_TYPE":"U","NORAD_CAT_ID":58329,"ELEMENT_SET_NO":999,"REV_AT_EPOCH":7421,"BSTAR":0.0010146,"MEAN_MOTION_DOT":0.00032641,"MEAN_MOTION_DDOT":0},{"OBJECT_NAME":"FLOCK 4BE-18","OBJECT_ID":"2024-149N","EPOCH":"2025-03-09T19:03:26.275104","MEAN_MOTION":15.25249632,"ECCENTRICITY":0.000593,"INCLINATION":97.4138,"RA_OF_ASC_NODE":147.6467,"ARG_OF_PERICENTER":110.3248,"MEAN_ANOMALY":249.8628,"EPHEMERIS_TYPE":0,"CLASSIFICATION_TYPE":"U","NORAD_CAT_ID":60480,"ELEMENT_SET_NO":999,"REV_AT_EPOCH":3116,"BSTAR":0.0007833,"MEAN_MOTION_DOT":0.00019663,"MEAN_MOTION_DDOT":0},{"OBJECT_NAME":"FLOCK 4BE-7","OBJECT_ID":"2024-149P","EPOCH":"2025-03-09T18:03:47.905920","MEAN_MOTION":15.24646479,"ECCENTRICITY":0.0005181,"INCLINATION":97.4172,"RA_OF_ASC_NODE":147.6337,"ARG_OF_PERICENTER":112.788,"MEAN_ANOMALY":247.3905,"EPHEMERIS_TYPE":0,"CLASSIFICATION_TYPE":"U","NORAD_CAT_ID":60481,"ELEMENT_SET_NO":999,"REV_AT_EPOCH":3115,"BSTAR":0.00076749,"MEAN_MOTION_DOT":0.00018916,"MEAN_MOTION_DDOT":0},{"OBJECT_NAME":"FLOCK 4BE-16","OBJECT_ID":"2024-149R","EPOCH":"2025-03-09T18:51:02.820384","MEAN_MOTION":15.25118816,"ECCENTRICITY":0.000458,"INCLINATION":97.4158,"RA_OF_ASC_NODE":147.704,"ARG_OF_PERICENTER":108.0204,"MEAN_ANOMALY":252.1534,"EPHEMERIS_TYPE":0,"CLASSIFICATION_TYPE":"U","NORAD_CAT_ID":60483,"ELEMENT_SET_NO":999,"REV_AT_EPOCH":3116,"BSTAR":0.00084667,"MEAN_MOTION_DOT":0.00021177,"MEAN_MOTION_DDOT":0},{"OBJECT_NAME":"FLOCK 4BE-26","OBJECT_ID":"2024-149S","EPOCH":"2025-03-09T19:04:49.854144","MEAN_MOTION":15.24971915,"ECCENTRICITY":0.0005221,"INCLINATION":97.4133,"RA_OF_ASC_NODE":147.6109,"ARG_OF_PERICENTER":111.267,"MEAN_ANOMALY":248.9126,"EPHEMERIS_TYPE":0,"CLASSIFICATION_TYPE":"U","NORAD_CAT_ID":60484,"ELEMENT_SET_NO":999,"REV_AT_EPOCH":3116,"BSTAR":0.0007256,"MEAN_MOTION_DOT":0.00018053,"MEAN_MOTION_DDOT":0},{"OBJECT_NAME":"FLOCK 4BE-36","OBJECT_ID":"2024-149U","EPOCH":"2025-03-09T18:03:34.747200","MEAN_MOTION":15.25793472,"ECCENTRICITY":0.0005922,"INCLINATION":97.414,"RA_OF_ASC_NODE":147.6873,"ARG_OF_PERICENTER":116.8918,"MEAN_ANOMALY":243.2926,"EPHEMERIS_TYPE":0,"CLASSIFICATION_TYPE":"U","NORAD_CAT_ID":60486,"ELEMENT_SET_NO":999,"REV_AT_EPOCH":3116,"BSTAR":0.00089384,"MEAN_MOTION_DOT":0.00022827,"MEAN_MOTION_DDOT":0},{"OBJECT_NAME":"FLOCK 4BE-25","OBJECT_ID":"2024-149V","EPOCH":"2025-03-09T19:13:25.594752","MEAN_MOTION":15.247673,"ECCENTRICITY":0.0004348,"INCLINATION":97.4195,"RA_OF_ASC_NODE":147.7684,"ARG_OF_PERICENTER":112.5379,"MEAN_ANOMALY":247.6319,"EPHEMERIS_TYPE":0,"CLASSIFICATION_TYPE":"U","NORAD_CAT_ID":60487,"ELEMENT_SET_NO":999,"REV_AT_EPOCH":3116,"BSTAR":0.00073872,"MEAN_MOTION_DOT":0.00018267,"MEAN_MOTION_DDOT":0},{"OBJECT_NAME":"FLOCK 4BE-31","OBJECT_ID":"2024-149W","EPOCH":"2025-03-09T17:44:35.686752","MEAN_MOTION":15.25752549,"ECCENTRICITY":0.0004761,"INCLINATION":97.419,"RA_OF_ASC_NODE":147.8453,"ARG_OF_PERICENTER":115.5413,"MEAN_ANOMALY":244.6318,"EPHEMERIS_TYPE":0,"CLASSIFICATION_TYPE":"U","NORAD_CAT_ID":60488,"ELEMENT_SET_NO":999,"REV_AT_EPOCH":3116,"BSTAR":0.00087164,"MEAN_MOTION_DOT":0.00022225,"MEAN_MOTION_DDOT":0},{"OBJECT_NAME":"FLOCK 4BE-20","OBJECT_ID":"2024-149X","EPOCH":"2025-03-09T17:56:31.091712","MEAN_MOTION":15.24414221,"ECCENTRICITY":0.0005947,"INCLINATION":97.4118,"RA_OF_ASC_NODE":147.4839,"ARG_OF_PERICENTER":116.5299,"MEAN_ANOMALY":243.6549,"EPHEMERIS_TYPE":0,"CLASSIFICATION_TYPE":"U","NORAD_CAT_ID":60489,"ELEMENT_SET_NO":999,"REV_AT_EPOCH":3115,"BSTAR":0.00071242,"MEAN_MOTION_DOT":0.00017431,"MEAN_MOTION_DDOT":0},{"OBJECT_NAME":"FLOCK 4BE-23","OBJECT_ID":"2024-149Y","EPOCH":"2025-03-09T18:33:32.161824","MEAN_MOTION":15.24157215,"ECCENTRICITY":0.0005756,"INCLINATION":97.4186,"RA_OF_ASC_NODE":147.6323,"ARG_OF_PERICENTER":117.9884,"MEAN_ANOMALY":242.1937,"EPHEMERIS_TYPE":0,"CLASSIFICATION_TYPE":"U","NORAD_CAT_ID":60490,"ELEMENT_SET_NO":999,"REV_AT_EPOCH":3115,"BSTAR":0.00072856,"MEAN_MOTION_DOT":0.00017692,"MEAN_MOTION_DDOT":0}]
